CAS500-2 RIDESHARE OBJE*
1 68982U 26100C   26129.83337963 -.00059275  00000+0 -60177-2 0  9996
2 68982  97.7362  27.9961 0002497 295.0347  21.4268 14.91177884  1302
