{
  "norad_id": 68982,
  "name": "CAS500-2 RIDESHARE OBJECT C",
  "history": [
    {
      "epoch": "2026-05-09T20:00:04.000032Z",
      "apogee_km": 596.0025814491746,
      "perigee_km": 592.520565601556,
      "latitude_deg": -43.30233236676807,
      "longitude_deg": -132.35041115871658,
      "height_km": 609.3423701971011,
      "semi_major_axis_km": 6972.3985735253655,
      "eccentricity": 0.0002497,
      "inclination_deg": 97.7362,
      "raan_deg": 27.9961,
      "arg_perigee_deg": 295.0347,
      "mean_anomaly_deg": 21.4268,
      "mean_motion_rev_day": 14.91177884
    }
  ]
}